{"type": "FeatureCollection", "features": [ {"type": "Feature", "properties": {"norad_id": 34736, "name": "COSMOS 2251 DEB", "group": "cosmos-2251-debris", "lat": 59.35743396750162, "lon": 67.27326676640297, "alt_km": 417.6791653460532, "timestamp": "2025-12-11T18:59:46.470454+00:00", "meta": {"OBJECT_NAME": "COSMOS 2251 DEB", "OBJECT_ID": "1993-036ZE", "EPOCH": "2025-12-11T04:44:55.142016", "MEAN_MOTION": 15.46033279, "ECCENTRICITY": 0.00172787, "INCLINATION": 74.0018, "RA_OF_ASC_NODE": 39.6022, "ARG_OF_PERICENTER": 348.9519, "MEAN_ANOMALY": 11.1309, "EPHEMERIS_TYPE": 0, "CLASSIFICATION_TYPE": "U", "NORAD_CAT_ID": 34736, "ELEMENT_SET_NO": 999, "REV_AT_EPOCH": 88424, "BSTAR": 0.010625447, "MEAN_MOTION_DOT": 0.00560383, "MEAN_MOTION_DDOT": 0}, "tle": {"line1": "1 34736U 93036ZE  25345.19786044  .00560383  00000+0  10625-1 0  9991", "line2": "2 34736  74.0018  39.6022 0017278 348.9519  11.1309 15.46033279884242"}}, "geometry": {"type": "Point", "coordinates": [67.27326676640297, 59.35743396750162]}}, {"type": "Feature", "properties": {"norad_id": 34738, "name": "COSMOS 2251 DEB", "group": "cosmos-2251-debris", "lat": -44.63813390923895, "lon": 128.595226917286, "alt_km": 712.7789511865967, "timestamp": "2025-12-11T18:59:46.470465+00:00", "meta": {"OBJECT_NAME": "COSMOS 2251 DEB", "OBJECT_ID": "1993-036ZG", "EPOCH": "2025-12-11T06:13:18.837120", "MEAN_MOTION": 14.46297499, "ECCENTRICITY": 0.00473486, "INCLINATION": 74.0142, "RA_OF_ASC_NODE": 146.033, "ARG_OF_PERICENTER": 292.5685, "MEAN_ANOMALY": 130.1491, "EPHEMERIS_TYPE": 0, "CLASSIFICATION_TYPE": "U", "NORAD_CAT_ID": 34738, "ELEMENT_SET_NO": 999, "REV_AT_EPOCH": 87837, "BSTAR": 0.00053650388, "MEAN_MOTION_DOT": 1.922e-05, "MEAN_MOTION_DDOT": 0}, "tle": {"line1": "1 34738U 93036ZG  25345.25924580  .00001922  00000+0  53650-3 0  9995", "line2": "2 34738  74.0142 146.0330 0047348 292.5685 130.1491 14.46297499878372"}}, "geometry": {"type": "Point", "coordinates": [128.595226917286, -44.63813390923895]}}, {"type": "Feature", "properties": {"norad_id": 34750, "name": "COSMOS 2251 DEB", "group": "cosmos-2251-debris", "lat": 55.49157635709014, "lon": -131.9624202998246, "alt_km": 687.0572597105393, "timestamp": "2025-12-11T18:59:46.470475+00:00", "meta": {"OBJECT_NAME": "COSMOS 2251 DEB", "OBJECT_ID": "1993-036ZU", "EPOCH": "2025-12-11T01:20:17.687328", "MEAN_MOTION": 14.61292894, "ECCENTRICITY": 0.0038917, "INCLINATION": 74.1083, "RA_OF_ASC_NODE": 204.957, "ARG_OF_PERICENTER": 158.6163, "MEAN_ANOMALY": 351.9045, "EPHEMERIS_TYPE": 0, "CLASSIFICATION_TYPE": "U", "NORAD_CAT_ID": 34750, "ELEMENT_SET_NO": 999, "REV_AT_EPOCH": 88206, "BSTAR": 0.0015303152, "MEAN_MOTION_DOT": 7.615e-05, "MEAN_MOTION_DDOT": 0}, "tle": {"line1": "1 34750U 93036ZU  25345.05576027  .00007615  00000+0  15303-2 0  9993", "line2": "2 34750  74.1083 204.9570 0038917 158.6163 351.9045 14.61292894882066"}}, "geometry": {"type": "Point", "coordinates": [-131.9624202998246, 55.49157635709014]}}, {"type": "Feature", "properties": {"norad_id": 34752, "name": "COSMOS 2251 DEB", "group": "cosmos-2251-debris", "lat": 63.21013961468716, "lon": 37.13186582603015, "alt_km": 545.5430401197937, "timestamp": "2025-12-11T18:59:46.470485+00:00", "meta": {"OBJECT_NAME": "COSMOS 2251 DEB", "OBJECT_ID": "1993-036ZW", "EPOCH": "2025-12-11T01:05:01.941504", "MEAN_MOTION": 14.99861157, "ECCENTRICITY": 0.00479068, "INCLINATION": 74.0135, "RA_OF_ASC_NODE": 4.0534, "ARG_OF_PERICENTER": 133.0461, "MEAN_ANOMALY": 227.4754, "EPHEMERIS_TYPE": 0, "CLASSIFICATION_TYPE": "U", "NORAD_CAT_ID": 34752, "ELEMENT_SET_NO": 999, "REV_AT_EPOCH": 89824, "BSTAR": 0.001302467, "MEAN_MOTION_DOT": 0.00016535, "MEAN_MOTION_DDOT": 0}, "tle": {"line1": "1 34752U 93036ZW  25345.04516136  .00016535  00000+0  13025-2 0  9999", "line2": "2 34752  74.0135   4.0534 0047906 133.0461 227.4754 14.99861157898246"}}, "geometry": {"type": "Point", "coordinates": [37.13186582603015, 63.21013961468716]}}, {"type": "Feature", "properties": {"norad_id": 34754, "name": "COSMOS 2251 DEB", "group": "cosmos-2251-debris", "lat": -60.607250887439, "lon": 79.91078751600556, "alt_km": 767.5463777390705, "timestamp": "2025-12-11T18:59:46.470496+00:00", "meta": {"OBJECT_NAME": "COSMOS 2251 DEB", "OBJECT_ID": "1993-036ZY", "EPOCH": "2025-12-11T01:30:21.281184", "MEAN_MOTION": 14.40477672, "ECCENTRICITY": 0.00295002, "INCLINATION": 74.0305, "RA_OF_ASC_NODE": 230.7044, "ARG_OF_PERICENTER": 347.1261, "MEAN_ANOMALY": 80.5102, "EPHEMERIS_TYPE": 0, "CLASSIFICATION_TYPE": "U", "NORAD_CAT_ID": 34754, "ELEMENT_SET_NO": 999, "REV_AT_EPOCH": 88109, "BSTAR": 0.00031324125, "MEAN_MOTION_DOT": 9.75e-06, "MEAN_MOTION_DDOT": 0}, "tle": {"line1": "1 34754U 93036ZY  25345.06274631  .00000975  00000+0  31324-3 0  9998", "line2": "2 34754  74.0305 230.7044 0029500 347.1261  80.5102 14.40477672881098"}}, "geometry": {"type": "Point", "coordinates": [79.91078751600556, -60.607250887439]}}, {"type": "Feature", "properties": {"norad_id": 34755, "name": "COSMOS 2251 DEB", "group": "cosmos-2251-debris", "lat": -56.95254018726834, "lon": -94.75640163872268, "alt_km": 779.0816238857806, "timestamp": "2025-12-11T18:59:46.470506+00:00", "meta": {"OBJECT_NAME": "COSMOS 2251 DEB", "OBJECT_ID": "1993-036ZZ", "EPOCH": "2025-12-10T13:38:40.081344", "MEAN_MOTION": 13.50549672, "ECCENTRICITY": 0.0408338, "INCLINATION": 73.9258, "RA_OF_ASC_NODE": 293.5146, "ARG_OF_PERICENTER": 313.7179, "MEAN_ANOMALY": 162.5908, "EPHEMERIS_TYPE": 0, "CLASSIFICATION_TYPE": "U", "NORAD_CAT_ID": 34755, "ELEMENT_SET_NO": 999, "REV_AT_EPOCH": 82494, "BSTAR": 0.0024737, "MEAN_MOTION_DOT": 2.646e-05, "MEAN_MOTION_DDOT": 0}, "tle": {"line1": "1 34755U 93036ZZ  25344.56851946  .00002646  00000+0  24737-2 0  9999", "line2": "2 34755  73.9258 293.5146 0408338 313.7179 162.5908 13.50549672824947"}}, "geometry": {"type": "Point", "coordinates": [-94.75640163872268, -56.95254018726834]}}, {"type": "Feature", "properties": {"norad_id": 34756, "name": "COSMOS 2251 DEB", "group": "cosmos-2251-debris", "lat": 28.415879025480653, "lon": -83.0000658826732, "alt_km": 1256.9712834454876, "timestamp": "2025-12-11T18:59:46.470517+00:00", "meta": {"OBJECT_NAME": "COSMOS 2251 DEB", "OBJECT_ID": "1993-036AAA", "EPOCH": "2025-12-11T00:42:08.326656", "MEAN_MOTION": 13.67236535, "ECCENTRICITY": 0.03449446, "INCLINATION": 74.0025, "RA_OF_ASC_NODE": 107.1822, "ARG_OF_PERICENTER": 343.3678, "MEAN_ANOMALY": 15.6341, "EPHEMERIS_TYPE": 0, "CLASSIFICATION_TYPE": "U", "NORAD_CAT_ID": 34756, "ELEMENT_SET_NO": 999, "REV_AT_EPOCH": 83398, "BSTAR": 0.0012256807, "MEAN_MOTION_DOT": 1.53e-05, "MEAN_MOTION_DDOT": 0}, "tle": {"line1": "1 34756U 93036AAA 25345.02926304  .00001530  00000+0  12257-2 0  9998", "line2": "2 34756  74.0025 107.1822 0344944 343.3678  15.6341 13.67236535833980"}}, "geometry": {"type": "Point", "coordinates": [-83.0000658826732, 28.415879025480653]}}, {"type": "Feature", "properties": {"norad_id": 34758, "name": "COSMOS 2251 DEB", "group": "cosmos-2251-debris", "lat": -64.61271705826448, "lon": -95.868642727968, "alt_km": 1243.6572753191786, "timestamp": "2025-12-11T18:59:46.470527+00:00", "meta": {"OBJECT_NAME": "COSMOS 2251 DEB", "OBJECT_ID": "1993-036AAC", "EPOCH": "2025-12-11T05:12:02.919744", "MEAN_MOTION": 13.58060405, "ECCENTRICITY": 0.03811205, "INCLINATION": 74.1077, "RA_OF_ASC_NODE": 301.948, "ARG_OF_PERICENTER": 66.0346, "MEAN_ANOMALY": 298.018, "EPHEMERIS_TYPE": 0, "CLASSIFICATION_TYPE": "U", "NORAD_CAT_ID": 34758, "ELEMENT_SET_NO": 999, "REV_AT_EPOCH": 82889, "BSTAR": 0.0017151264, "MEAN_MOTION_DOT": 1.975e-05, "MEAN_MOTION_DDOT": 0}, "tle": {"line1": "1 34758U 93036AAC 25345.21670046  .00001975  00000+0  17151-2 0  9991", "line2": "2 34758  74.1077 301.9480 0381120  66.0346 298.0180 13.58060405828895"}}, "geometry": {"type": "Point", "coordinates": [-95.868642727968, -64.61271705826448]}}, {"type": "Feature", "properties": {"norad_id": 34760, "name": "COSMOS 2251 DEB", "group": "cosmos-2251-debris", "lat": -25.69995550000548, "lon": -63.85164086676856, "alt_km": 767.8603583295962, "timestamp": "2025-12-11T18:59:46.470539+00:00", "meta": {"OBJECT_NAME": "COSMOS 2251 DEB", "OBJECT_ID": "1993-036AAE", "EPOCH": "2025-12-11T03:59:03.169824", "MEAN_MOTION": 14.19561942, "ECCENTRICITY": 0.00967287, "INCLINATION": 74.0638, "RA_OF_ASC_NODE": 305.1678, "ARG_OF_PERICENTER": 357.6404, "MEAN_ANOMALY": 20.7795, "EPHEMERIS_TYPE": 0, "CLASSIFICATION_TYPE": "U", "NORAD_CAT_ID": 34760, "ELEMENT_SET_NO": 999, "REV_AT_EPOCH": 86666, "BSTAR": 0.0010230035, "MEAN_MOTION_DOT": 2.236e-05, "MEAN_MOTION_DDOT": 0}, "tle": {"line1": "1 34760U 93036AAE 25345.16600891  .00002236  00000+0  10230-2 0  9991", "line2": "2 34760  74.0638 305.1678 0096728 357.6404  20.7795 14.19561942866665"}}, "geometry": {"type": "Point", "coordinates": [-63.85164086676856, -25.69995550000548]}}, {"type": "Feature", "properties": {"norad_id": 34761, "name": "COSMOS 2251 DEB", "group": "cosmos-2251-debris", "lat": -10.563376312497384, "lon": -172.3992293337045, "alt_km": 791.7344278512983, "timestamp": "2025-12-11T18:59:46.470549+00:00", "meta": {"OBJECT_NAME": "COSMOS 2251 DEB", "OBJECT_ID": "1993-036AAF", "EPOCH": "2025-12-11T01:25:03.319680", "MEAN_MOTION": 14.38039195, "ECCENTRICITY": 0.0036336, "INCLINATION": 74.0296, "RA_OF_ASC_NODE": 5.8886, "ARG_OF_PERICENTER": 40.4894, "MEAN_ANOMALY": 319.8953, "EPHEMERIS_TYPE": 0, "CLASSIFICATION_TYPE": "U", "NORAD_CAT_ID": 34761, "ELEMENT_SET_NO": 999, "REV_AT_EPOCH": 87625, "BSTAR": 0.00084889801, "MEAN_MOTION_DOT": 2.564e-05, "MEAN_MOTION_DDOT": 0}, "tle": {"line1": "1 34761U 93036AAF 25345.05906620  .00002564  00000+0  84890-3 0  9997", "line2": "2 34761  74.0296   5.8886 0036336  40.4894 319.8953 14.38039195876255"}}, "geometry": {"type": "Point", "coordinates": [-172.3992293337045, -10.563376312497384]}}]}